{
    "week": 295,
    "satellites": [
        {
            "Name": "GSAT0218 (GALILEO 22)",
            "Line1": "1 43058U 17079D   24338.38856193  .00000037  00000+0  00000+0 0  9995",
            "Line2": "2 43058  55.2673 236.9378 0003075 301.2488  58.8082  1.70473816 43453",
            "SatelliteNumber": "43058",
            "Classification": "U",
            "LaunchYear": "17",
            "LaunchNumber": "079",
            "PieceOfLaunch": "D",
            "EpochYear": "24",
            "EpochDay": 338.38856193,
            "FirstDerivativeMeanMotion": 3.7e-07,
            "SecondDerivativeMeanMotion": "00000+0",
            "BSTAR": "00000+0",
            "SetNumber": "999",
            "Inclination": 55.2673,
            "RAAN": 236.9378,
            "Eccentricity": 0.0003075,
            "ArgumentOfPerigee": 301.2488,
            "MeanAnomaly": 58.8082,
            "MeanMotion": 1.70473816,
            "RevolutionNumber": "4345"
        },
        {
            "Name": "GSAT0221 (GALILEO 25)",
            "Line1": "1 43564U 18060A   24338.87615141 -.00000059  00000+0  00000+0 0  9993",
            "Line2": "2 43564  57.2953 356.8979 0006281 276.2515  83.7250  1.70475867 39616",
            "SatelliteNumber": "43564",
            "Classification": "U",
            "LaunchYear": "18",
            "LaunchNumber": "060",
            "PieceOfLaunch": "A",
            "EpochYear": "24",
            "EpochDay": 338.87615141,
            "FirstDerivativeMeanMotion": -5.9e-07,
            "SecondDerivativeMeanMotion": "00000+0",
            "BSTAR": "00000+0",
            "SetNumber": "999",
            "Inclination": 57.2953,
            "RAAN": 356.8979,
            "Eccentricity": 0.0006281,
            "ArgumentOfPerigee": 276.2515,
            "MeanAnomaly": 83.725,
            "MeanMotion": 1.70475867,
            "RevolutionNumber": "3961"
        },
        {
            "Name": "GSAT0222 (GALILEO 26)",
            "Line1": "1 43565U 18060B   24337.33515994 -.00000060  00000+0  00000+0 0  9991",
            "Line2": "2 43565  57.2992 356.9414 0005755 254.9987 104.9896  1.70475682 39635",
            "SatelliteNumber": "43565",
            "Classification": "U",
            "LaunchYear": "18",
            "LaunchNumber": "060",
            "PieceOfLaunch": "B",
            "EpochYear": "24",
            "EpochDay": 337.33515994,
            "FirstDerivativeMeanMotion": -6e-07,
            "SecondDerivativeMeanMotion": "00000+0",
            "BSTAR": "00000+0",
            "SetNumber": "999",
            "Inclination": 57.2992,
            "RAAN": 356.9414,
            "Eccentricity": 0.0005755,
            "ArgumentOfPerigee": 254.9987,
            "MeanAnomaly": 104.9896,
            "MeanMotion": 1.70475682,
            "RevolutionNumber": "3963"
        },
        {
            "Name": "GSAT0219 (GALILEO 23)",
            "Line1": "1 43566U 18060C   24338.14337909 -.00000059  00000+0  00000+0 0  9998",
            "Line2": "2 43566  57.2980 356.9215 0005364 280.3649  79.6246  1.70475879 39620",
            "SatelliteNumber": "43566",
            "Classification": "U",
            "LaunchYear": "18",
            "LaunchNumber": "060",
            "PieceOfLaunch": "C",
            "EpochYear": "24",
            "EpochDay": 338.14337909,
            "FirstDerivativeMeanMotion": -5.9e-07,
            "SecondDerivativeMeanMotion": "00000+0",
            "BSTAR": "00000+0",
            "SetNumber": "999",
            "Inclination": 57.298,
            "RAAN": 356.9215,
            "Eccentricity": 0.0005364,
            "ArgumentOfPerigee": 280.3649,
            "MeanAnomaly": 79.6246,
            "MeanMotion": 1.70475879,
            "RevolutionNumber": "3962"
        },
        {
            "Name": "GSAT0220 (GALILEO 24)",
            "Line1": "1 43567U 18060D   24338.95070129 -.00000059  00000+0  00000+0 0  9996",
            "Line2": "2 43567  57.2979 356.9004 0005637 278.9089  81.0752  1.70475732 39626",
            "SatelliteNumber": "43567",
            "Classification": "U",
            "LaunchYear": "18",
            "LaunchNumber": "060",
            "PieceOfLaunch": "D",
            "EpochYear": "24",
            "EpochDay": 338.95070129,
            "FirstDerivativeMeanMotion": -5.9e-07,
            "SecondDerivativeMeanMotion": "00000+0",
            "BSTAR": "00000+0",
            "SetNumber": "999",
            "Inclination": 57.2979,
            "RAAN": 356.9004,
            "Eccentricity": 0.0005637,
            "ArgumentOfPerigee": 278.9089,
            "MeanAnomaly": 81.0752,
            "MeanMotion": 1.70475732,
            "RevolutionNumber": "3962"
        },
        {
            "Name": "GSAT0223 (GALILEO 27)",
            "Line1": "1 49809U 21116A   24339.09424174 -.00000059  00000+0  00000+0 0  9996",
            "Line2": "2 49809  57.2879 356.7897 0004196 241.7663 296.8561  1.70475963 18631",
            "SatelliteNumber": "49809",
            "Classification": "U",
            "LaunchYear": "21",
            "LaunchNumber": "116",
            "PieceOfLaunch": "A",
            "EpochYear": "24",
            "EpochDay": 339.09424174,
            "FirstDerivativeMeanMotion": -5.9e-07,
            "SecondDerivativeMeanMotion": "00000+0",
            "BSTAR": "00000+0",
            "SetNumber": "999",
            "Inclination": 57.2879,
            "RAAN": 356.7897,
            "Eccentricity": 0.0004196,
            "ArgumentOfPerigee": 241.7663,
            "MeanAnomaly": 296.8561,
            "MeanMotion": 1.70475963,
            "RevolutionNumber": "1863"
        },
        {
            "Name": "GSAT0224 (GALILEO 28)",
            "Line1": "1 49810U 21116B   24336.27781841 -.00000062  00000+0  00000+0 0  9996",
            "Line2": "2 49810  57.2889 356.8642 0003741 245.2487 117.3978  1.70476203 18605",
            "SatelliteNumber": "49810",
            "Classification": "U",
            "LaunchYear": "21",
            "LaunchNumber": "116",
            "PieceOfLaunch": "B",
            "EpochYear": "24",
            "EpochDay": 336.27781841,
            "FirstDerivativeMeanMotion": -6.2e-07,
            "SecondDerivativeMeanMotion": "00000+0",
            "BSTAR": "00000+0",
            "SetNumber": "999",
            "Inclination": 57.2889,
            "RAAN": 356.8642,
            "Eccentricity": 0.0003741,
            "ArgumentOfPerigee": 245.2487,
            "MeanAnomaly": 117.3978,
            "MeanMotion": 1.70476203,
            "RevolutionNumber": "1860"
        },
        {
            "Name": "GSAT0225 (GALILEO 29)",
            "Line1": "1 59598U 24079A   24337.44153372  .00000046  00000+0  00000+0 0  9994",
            "Line2": "2 59598  54.7898 116.7999 0002998 170.9823 176.9189  1.70474907  3732",
            "SatelliteNumber": "59598",
            "Classification": "U",
            "LaunchYear": "24",
            "LaunchNumber": "079",
            "PieceOfLaunch": "A",
            "EpochYear": "24",
            "EpochDay": 337.44153372,
            "FirstDerivativeMeanMotion": 4.6e-07,
            "SecondDerivativeMeanMotion": "00000+0",
            "BSTAR": "00000+0",
            "SetNumber": "999",
            "Inclination": 54.7898,
            "RAAN": 116.7999,
            "Eccentricity": 0.0002998,
            "ArgumentOfPerigee": 170.9823,
            "MeanAnomaly": 176.9189,
            "MeanMotion": 1.70474907,
            "RevolutionNumber": "373"
        },
        {
            "Name": "GSAT0227 (GALILEO 30)",
            "Line1": "1 59600U 24079C   24339.40426780  .00000048  00000+0  00000+0 0  9994",
            "Line2": "2 59600  54.7855 116.7449 0003530 120.4975 239.5002  1.70474718  3820",
            "SatelliteNumber": "59600",
            "Classification": "U",
            "LaunchYear": "24",
            "LaunchNumber": "079",
            "PieceOfLaunch": "C",
            "EpochYear": "24",
            "EpochDay": 339.4042678,
            "FirstDerivativeMeanMotion": 4.8e-07,
            "SecondDerivativeMeanMotion": "00000+0",
            "BSTAR": "00000+0",
            "SetNumber": "999",
            "Inclination": 54.7855,
            "RAAN": 116.7449,
            "Eccentricity": 0.000353,
            "ArgumentOfPerigee": 120.4975,
            "MeanAnomaly": 239.5002,
            "MeanMotion": 1.70474718,
            "RevolutionNumber": "382"
        },
        {
            "Name": "GSAT0232 (GALILEO 32)",
            "Line1": "1 61182U 24167A   24321.21686440 -.00000004  00000+0  00000+0 0  9994",
            "Line2": "2 61182  55.3884 237.1378 0015743 276.0571  83.7985  1.73178105  1028",
            "SatelliteNumber": "61182",
            "Classification": "U",
            "LaunchYear": "24",
            "LaunchNumber": "167",
            "PieceOfLaunch": "A",
            "EpochYear": "24",
            "EpochDay": 321.2168644,
            "FirstDerivativeMeanMotion": -4e-08,
            "SecondDerivativeMeanMotion": "00000+0",
            "BSTAR": "00000+0",
            "SetNumber": "999",
            "Inclination": 55.3884,
            "RAAN": 237.1378,
            "Eccentricity": 0.0015743,
            "ArgumentOfPerigee": 276.0571,
            "MeanAnomaly": 83.7985,
            "MeanMotion": 1.73178105,
            "RevolutionNumber": "102"
        }
    ]
}